OBJECT_NAME,OBJECT_ID,EPOCH,MEAN_MOTION,ECCENTRICITY,INCLINATION,RA_OF_ASC_NODE,ARG_OF_PERICENTER,MEAN_ANOMALY,EPHEMERIS_TYPE,CLASSIFICATION_TYPE,NORAD_CAT_ID,ELEMENT_SET_NO,REV_AT_EPOCH,BSTAR,MEAN_MOTION_DOT,MEAN_MOTION_DDOT
PLEIADES NEO 3,2021-034A,2026-06-12T20:43:29.536320,14.81676977,.0001413,97.8934,238.6924,87.6979,272.4395,0,U,48268,999,27701,.80495E-4,.581E-5,0
PLEIADES NEO 4,2021-073E,2026-06-12T19:54:52.475328,14.81680307,.0001366,97.8936,238.6547,86.2717,273.8652,0,U,49070,999,26072,.14232E-3,.1068E-4,0
LANDSAT 9,2021-088A,2026-06-12T19:14:20.433696,14.57093252,.0001557,98.2277,234.0319,86.5217,273.6159,0,U,49260,999,25036,.75055E-4,.293E-5,0
CSG-2,2022-008A,2026-06-12T19:57:58.016736,14.82153746,.0001455,97.8888,347.4933,84.8608,275.2771,0,U,51444,999,23594,.37832E-4,.249E-5,0
GAOFEN-12 03,2022-069A,2026-06-12T20:40:24.655872,14.80029060,.0001902,97.8292,51.8409,107.0687,253.0733,0,U,52912,999,21397,.15488E-3,.1122E-4,0
SWOT,2022-173A,2026-06-12T18:32:19.707648,14.00169125,.0000248,77.6109,41.2700,96.5910,263.5270,0,U,54754,999,17853,.7614E-4,.11E-5,0
GAOFEN-12 04,2023-123A,2026-06-12T21:05:15.029088,14.80221251,.0001793,97.9128,81.9583,84.8046,275.3371,0,U,57654,999,15199,.13136E-3,.947E-5,0
PARS 1,2024-039Q,2026-06-12T20:20:29.532192,15.45639148,.0011234,97.4815,144.6304,124.5524,235.6787,0,U,59065,999,12797,.24856E-3,.11914E-3,0
RESURS-P 4,2024-061A,2026-06-12T21:17:42.876384,15.32108370,.000185,97.2750,111.8610,131.3816,228.7585,0,U,59371,999,12310,.10294E-3,.3115E-4,0
LEGION 1,2024-081A,2026-06-12T20:56:28.947264,15.16638788,.000995,97.5022,241.7753,32.2399,327.9441,0,U,59625,999,11688,.18727E-3,.3599E-4,0
LEGION 2,2024-081B,2026-06-12T20:04:33.663072,15.16617028,.0011169,97.5022,241.8372,359.4420,0.6798,0,U,59626,999,11688,.2091E-3,.4025E-4,0
ALOS-4 (DAICHI-4),2024-123A,2026-06-12T19:55:12.887328,14.79466855,.0001616,97.9244,261.0650,98.9322,261.2072,0,U,60182,999,10523,.1776E-3,.1275E-4,0
LEGION 3,2024-146A,2026-06-12T18:46:03.059904,15.16008081,.0007193,45.0025,54.1795,143.8341,216.3025,0,U,60452,999,10135,.20528E-3,.375E-4,0
LEGION 4,2024-146B,2026-06-12T06:11:20.688576,15.15996006,.00140919,45.0000,148.9016,282.7000,77.2303,0,U,60453,999,10012,.17303311E-3,.3121E-4,0
SENTINEL-2C,2024-157A,2026-06-12T20:05:06.417312,14.30816658,.0001096,98.5691,238.6803,79.4870,280.6436,0,U,60989,999,9236,.48763E-4,.84E-6,0
IONOSFERA-M 1,2024-199A,2026-06-12T20:00:21.584160,14.22753536,.0001836,98.7179,37.0517,116.1731,243.9636,0,U,61735,999,12708,.43855E-4,.54E-6,0
IONOSFERA-M 2,2024-199B,2026-06-12T19:08:29.457888,14.22756761,.0001228,98.7178,36.9267,42.8055,317.3218,0,U,61736,999,13020,.48181E-4,.64E-6,0
PRSC-EO1,2025-012A,2026-06-12T20:09:49.085280,15.17716281,.0004213,97.4233,236.3847,270.6596,89.4155,0,U,62725,999,7753,.35256E-3,.7047E-4,0
BIOMASS,2025-090A,2026-06-12T19:20:55.450176,14.67536686,.0001371,98.0742,351.1869,91.9045,268.2316,0,U,63772,999,6004,.18063E-3,.976E-5,0
GOSAT-GW (IBUKI GW),2025-141A,2026-06-12T19:50:12.607584,14.67555718,.0001422,98.0570,101.2145,84.1811,275.9555,0,U,64694,999,5120,.68318E-4,.34E-5,0
IONOSFERA-M 3,2025-155A,2026-06-12T21:09:40.387680,14.21485786,.000076,98.6023,125.8951,164.8762,195.2438,0,U,64876,999,4579,.32573E-4,.28E-6,0
IONOSFERA-M 4,2025-155B,2026-06-12T20:18:29.715264,14.21487980,.0000889,98.6029,125.7779,119.7548,240.3719,0,U,64877,999,4578,.39653E-4,.44E-6,0
MICROCARB,2025-156A,2026-06-12T19:12:21.932640,14.72321334,.0015,97.9832,241.0158,287.6346,72.3223,0,U,64899,999,4732,.81192E-4,.464E-5,0
CO3D 3,2025-156B,2026-06-12T18:39:36.251424,15.20207547,.0001302,97.4335,242.5337,133.3362,226.7982,0,U,64900,999,4886,.22652E-3,.484E-4,0
CO3D 4,2025-156C,2026-06-12T18:39:49.296960,15.20188803,.0000626,97.4330,242.5347,16.5821,343.5434,0,U,64901,999,4886,.15586E-4,.27E-5,0
CO3D 2,2025-156D,2026-06-12T19:26:35.607840,15.20207658,.0001459,97.4334,242.4648,110.8538,249.2853,0,U,64902,999,4886,.22264E-3,.4756E-4,0
CO3D 1,2025-156E,2026-06-12T19:26:48.927264,15.20209450,.0001254,97.4333,242.4652,114.8086,245.3279,0,U,64903,999,4886,.25295E-3,.5413E-4,0
PRSC-S1,2025-164A,2026-06-12T19:43:40.265184,15.06420499,.0007195,41.1314,312.3956,317.0398,42.9853,0,U,65055,999,4777,.37689E-3,.5483E-4,0
SENTINEL-6B,2025-264A,2026-06-12T05:52:58.699776,12.80929950,.00080411,66.0390,145.4432,269.2351,90.7743,0,U,66514,999,2653,.93195447E-4,-.4E-6,0
CAS500-3,2025-274F,2026-06-12T18:40:16.226112,14.88311528,.000655,97.7448,91.9293,121.7084,238.4772,0,U,66655,999,2949,.13594E-3,.1204E-4,0
CSG-3,2026-001A,2026-06-12T06:29:53.738304,14.82150381,.00013397,97.8887,346.9439,93.5842,266.5524,0,U,67304,999,2373,.39126151E-4,.259E-5,0
PRSC-E03,2026-092A,2026-06-12T19:32:12.253344,15.06647924,.0004486,37.9999,115.4670,331.7458,28.3059,0,U,68835,999,729,.18172E-3,.2639E-4,0
CAS500-2,2026-100AK,2026-06-12T06:46:44.582880,15.20533930,.00110836,97.4087,61.2221,49.9195,310.3011,0,U,69013,999,606,.3061921E-3,.6641E-4,0
